#aV2008  8 11  0  0   .00000000      96 DD+AD WGS84 FIT  NGA
## 1492  86400.00000000   900.00000000 54689  .0000000000000
+   31     2  3  4  5  6  7  8  9 10 11 12 13 14 15 16 17 18
+         19 20 21 22 23 24 25 26 27 28 29 30 31 32  0  0  0
+          0  0  0  0  0  0  0  0  0  0  0  0  0  0  0  0  0
+          0  0  0  0  0  0  0  0  0  0  0  0  0  0  0  0  0
+          0  0  0  0  0  0  0  0  0  0  0  0  0  0  0  0  0
++         0  0  0  0  0  0  0  0  0  0  0  0  0  0  0  0  0
++         0  0  0  0  0  0  0  0  0  0  0  0  0  0  0  0  0
++         0  0  0  0  0  0  0  0  0  0  0  0  0  0  0  0  0
++         0  0  0  0  0  0  0  0  0  0  0  0  0  0  0  0  0
++         0  0  0  0  0  0  0  0  0  0  0  0  0  0  0  0  0
%c cc cc ccc ccc cccc cccc cccc cccc ccccc ccccc ccccc ccccc
%c cc cc ccc ccc cccc cccc cccc cccc ccccc ccccc ccccc ccccc
%f  0.0000000  0.000000000  0.00000000000  0.000000000000000
%f  0.0000000  0.000000000  0.00000000000  0.000000000000000
%i    0    0    0    0      0      0      0      0         0
%i    0    0    0    0      0      0      0      0         0
/*      NGA, ST. LOUIS,MO.                                  
/*   EPHEMERIS COMPUTED FROM  3 DAYS OF DATA                
/* CCCCCCCCCCCCCCCCCCCCCCCCCCCCCCCCCCCCCCCCCCCCCCCCCCCCCCCCC
/* CCCCCCCCCCCCCCCCCCCCCCCCCCCCCCCCCCCCCCCCCCCCCCCCCCCCCCCCC
*  2008  8 11  7  0   .00000000                                                 
P  2  20048.444596 -13372.991256  10604.335301    195.722979                    
V  2  14209.915476   -440.717454 -27422.426291      -.027075                    
P  3 -10928.739912  21889.586060   9614.843124    268.053810                    
V  3  -1700.123508 -13223.540312  27764.331552       .051715                    
P  4  25995.328538  -6357.217351   -157.472562   -139.419106                    
V  4    673.397134   3029.499864 -31090.542144      -.103692                    
P  5 -12844.620998 -20921.876183 -10595.029571    680.592381                    
V  5  11724.931841   6302.143462 -27265.211801     -2.886245                    
P  6 -14326.379551  18119.779206  13312.370740    166.643150                    
V  6   1025.434790 -16861.425406  24396.867287       .013484                    
P  7  16301.625532   9291.958722  18802.471103      7.167896                    
V  7 -22803.153751   7287.369478  16055.322394       .041731                    
P  8  24955.710862   1474.662460   9583.329942   -165.420016                    
V  8 -11570.676202   3870.189229  28810.413699      -.014428                    
P  9    239.110928 -15740.969130 -22019.505955      9.480222                    
V  9  25452.479111  -7124.326363   5666.550166       .018845                    
P 10   8936.670305 -12410.468984  21553.046215     -3.748568                    
V 10  19262.875899  19936.193485   3788.846220      -.003587                    
P 11   3660.744062  16644.828367 -20494.363852     21.862697                    
V 11 -23854.377842  10488.739916   4633.274082      -.007002                    
P 12  -7652.605589 -21425.181962 -13704.713458   -354.855118                    
V 12  13692.741541  11077.981835 -24720.195644       .010880                    
P 13   8081.464434  15920.760675  19545.422631    267.210587                    
V 13  -8643.258563  23467.117463 -15439.049063       .014105                    
P 14 -15536.622332   3017.241382 -21205.025601   -233.552393                    
V 14   7472.896872 -26070.002869  -9247.189636       .045472                    
P 15   6709.028694 -25692.433761   -107.750434   -157.992044                    
V 15   2878.091511    590.482100  31691.239717      -.064657                    
P 16 -13468.693395   7556.593574  21691.275859    112.748730                    
V 16 -18590.720691 -20064.298076  -4362.916578      -.018632                    
P 17  16121.438970  -3329.883874 -20763.881488     38.967098                    
V 17  -6533.419314  25708.344670  -9341.885800      -.000783                    
P 18 -19750.876738 -17635.325709  -3689.870895   -146.305243                    
V 18  -1144.645910  -5572.922044  30741.921493       .042173                    
P 19  -7863.968343  25208.660107  -1429.872636     34.572735                    
V 19  -3564.604719    778.536056  31743.658217       .003927                    
P 20   9771.165043  21679.830487 -11981.493237    107.777702                    
V 20 -12619.430089  -8633.784985 -26129.635443      -.010434                    
P 21 -21122.385410  -6659.900708  15298.628621     54.867163                    
V 21  17923.828978  -6323.451553  21678.308566      -.013682                    
P 22 -20764.774126  -6801.857180 -14983.283705    211.361705                    
V 22 -11184.026544 -15942.062322  22434.221811      -.001347                    
P 23   1624.132640  23640.965281  11658.773123    368.478079                    
V 23  -6283.157790  13796.130444 -27206.986838       .016609                    
P 24  -6673.033679 -14274.557099  21518.300766    116.225947                    
V 24  26344.093316  -5945.822237   4529.250206       .029275                    
P 25   9292.463984  12645.406722  21764.370430   -218.200600                    
V 25 -25031.802557   9600.845443   5368.729231      -.149265                    
P 26  10136.368144 -23935.208322   3297.660242    307.912948                    
V 26    619.070392   5317.930094  32461.472021       .062811                    
P 27  18710.605167   7061.965569  18217.966755    209.269464                    
V 27 -20293.105013   7823.271151  18383.013632       .027585                    
P 28  20953.318628   8469.545783 -13827.257501    -21.768478                    
V 28  10861.564936  14588.497764  24374.584666      -.003347                    
P 29  -7144.484274 -18790.688936  17489.488414    -40.116332                    
V 29   7905.672538 -20568.724136 -18962.345023       .007053                    
P 30 -18143.893521 -19364.456804  -2365.884786     90.536954                    
V 30   3971.684952   -461.058784 -31255.048461       .020232                    
P 31 -25061.641470   8584.106410   2834.039182    -25.053779                    
V 31  -3848.745058  -1516.784507 -31587.544038      -.000712                    
P 32   2311.780285  20489.776097 -16411.725258    312.707636                    
V 32 -15074.734631 -15523.646945 -20781.293360       .018077                    
EOF
